CCSDS_OMM_VERS = 2.0
CREATION_DATE  = 
ORIGINATOR     = 

OBJECT_NAME    = IDEFIX & ARIANE 42P R/B
OBJECT_ID      = 2002-021B
CENTER_NAME    = EARTH
REF_FRAME      = TEME
TIME_SYSTEM    = UTC
MEAN_ELEMENT_THEORY = SGP/SGP4

EPOCH          = 2026-01-11T13:55:26.562720
MEAN_MOTION    = 14.30977113
ECCENTRICITY   = .00119345
INCLINATION    = 98.5816
RA_OF_ASC_NODE = 310.8892
ARG_OF_PERICENTER = 1.3188
MEAN_ANOMALY   = 358.8024

EPHEMERIS_TYPE = 0
CLASSIFICATION_TYPE = U
NORAD_CAT_ID   = 27422
ELEMENT_SET_NO = 999
REV_AT_EPOCH   = 23585
BSTAR          = .12827916E-3
MEAN_MOTION_DOT = .294E-5
MEAN_MOTION_DDOT = 0

CCSDS_OMM_VERS = 2.0
CREATION_DATE  = 
ORIGINATOR     = 

OBJECT_NAME    = AQUA
OBJECT_ID      = 2002-022A
CENTER_NAME    = EARTH
REF_FRAME      = TEME
TIME_SYSTEM    = UTC
MEAN_ELEMENT_THEORY = SGP/SGP4

EPOCH          = 2026-01-11T14:26:16.855872
MEAN_MOTION    = 14.61815760
ECCENTRICITY   = .00020348
INCLINATION    = 98.4078
RA_OF_ASC_NODE = 337.9720
ARG_OF_PERICENTER = 82.3051
MEAN_ANOMALY   = 337.8743

EPHEMERIS_TYPE = 0
CLASSIFICATION_TYPE = U
NORAD_CAT_ID   = 27424
ELEMENT_SET_NO = 999
REV_AT_EPOCH   = 26039
BSTAR          = .22133216E-3
MEAN_MOTION_DOT = .1056E-4
MEAN_MOTION_DDOT = 0

CCSDS_OMM_VERS = 2.0
CREATION_DATE  = 
ORIGINATOR     = 

OBJECT_NAME    = CZ-4B R/B
OBJECT_ID      = 2002-024C
CENTER_NAME    = EARTH
REF_FRAME      = TEME
TIME_SYSTEM    = UTC
MEAN_ELEMENT_THEORY = SGP/SGP4

EPOCH          = 2026-01-11T13:53:24.259200
MEAN_MOTION    = 14.14535134
ECCENTRICITY   = .00501437
INCLINATION    = 98.8955
RA_OF_ASC_NODE = 65.2400
ARG_OF_PERICENTER = 184.1294
MEAN_ANOMALY   = 301.1382

EPHEMERIS_TYPE = 0
CLASSIFICATION_TYPE = U
NORAD_CAT_ID   = 27432
ELEMENT_SET_NO = 999
REV_AT_EPOCH   = 22116
BSTAR          = .39155815E-4
MEAN_MOTION_DOT = .32E-6
MEAN_MOTION_DDOT = 0

CCSDS_OMM_VERS = 2.0
CREATION_DATE  = 
ORIGINATOR     = 

OBJECT_NAME    = MIDORI II (ADEOS-II)
OBJECT_ID      = 2002-056A
CENTER_NAME    = EARTH
REF_FRAME      = TEME
TIME_SYSTEM    = UTC
MEAN_ELEMENT_THEORY = SGP/SGP4

EPOCH          = 2026-01-11T14:36:44.185536
MEAN_MOTION    = 14.29233276
ECCENTRICITY   = .00015656
INCLINATION    = 98.7676
RA_OF_ASC_NODE = 329.7286
ARG_OF_PERICENTER = 123.5032
MEAN_ANOMALY   = 236.6299

EPHEMERIS_TYPE = 0
CLASSIFICATION_TYPE = U
NORAD_CAT_ID   = 27597
ELEMENT_SET_NO = 999
REV_AT_EPOCH   = 20214
BSTAR          = .14724467E-3
MEAN_MOTION_DOT = .329E-5
MEAN_MOTION_DDOT = 0

CCSDS_OMM_VERS = 2.0
CREATION_DATE  = 
ORIGINATOR     = 

OBJECT_NAME    = H-2A R/B
OBJECT_ID      = 2002-056E
CENTER_NAME    = EARTH
REF_FRAME      = TEME
TIME_SYSTEM    = UTC
MEAN_ELEMENT_THEORY = SGP/SGP4

EPOCH          = 2026-01-11T15:25:19.182432
MEAN_MOTION    = 14.33709317
ECCENTRICITY   = .00698027
INCLINATION    = 98.3106
RA_OF_ASC_NODE = 334.2160
ARG_OF_PERICENTER = 332.5444
MEAN_ANOMALY   = 201.4690

EPHEMERIS_TYPE = 0
CLASSIFICATION_TYPE = U
NORAD_CAT_ID   = 27601
ELEMENT_SET_NO = 999
REV_AT_EPOCH   = 20593
BSTAR          = .14708716E-3
MEAN_MOTION_DOT = .377E-5
MEAN_MOTION_DDOT = 0

CCSDS_OMM_VERS = 2.0
CREATION_DATE  = 
ORIGINATOR     = 

OBJECT_NAME    = CZ-4B R/B
OBJECT_ID      = 2003-049C
CENTER_NAME    = EARTH
REF_FRAME      = TEME
TIME_SYSTEM    = UTC
MEAN_ELEMENT_THEORY = SGP/SGP4

EPOCH          = 2026-01-11T13:55:33.878208
MEAN_MOTION    = 14.54945502
ECCENTRICITY   = .00490813
INCLINATION    = 98.6813
RA_OF_ASC_NODE = 4.2756
ARG_OF_PERICENTER = 46.9194
MEAN_ANOMALY   = 313.6094

EPHEMERIS_TYPE = 0
CLASSIFICATION_TYPE = U
NORAD_CAT_ID   = 28059
ELEMENT_SET_NO = 999
REV_AT_EPOCH   = 17829
BSTAR          = .11637794E-3
MEAN_MOTION_DOT = .457E-5
MEAN_MOTION_DDOT = 0

CCSDS_OMM_VERS = 2.0
CREATION_DATE  = 
ORIGINATOR     = 

OBJECT_NAME    = CZ-2C R/B
OBJECT_ID      = 2004-012C
CENTER_NAME    = EARTH
REF_FRAME      = TEME
TIME_SYSTEM    = UTC
MEAN_ELEMENT_THEORY = SGP/SGP4

EPOCH          = 2026-01-11T15:05:12.144192
MEAN_MOTION    = 15.58191831
ECCENTRICITY   = .00169394
INCLINATION    = 97.7371
RA_OF_ASC_NODE = 71.7686
ARG_OF_PERICENTER = 157.6673
MEAN_ANOMALY   = 202.5323

EPHEMERIS_TYPE = 0
CLASSIFICATION_TYPE = U
NORAD_CAT_ID   = 28222
ELEMENT_SET_NO = 999
REV_AT_EPOCH   = 19537
BSTAR          = .56970337E-3
MEAN_MOTION_DOT = .43313E-3
MEAN_MOTION_DDOT = 0

CCSDS_OMM_VERS = 2.0
CREATION_DATE  = 
ORIGINATOR     = 

OBJECT_NAME    = SL-16 R/B
OBJECT_ID      = 2004-021B
CENTER_NAME    = EARTH
REF_FRAME      = TEME
TIME_SYSTEM    = UTC
MEAN_ELEMENT_THEORY = SGP/SGP4

EPOCH          = 2026-01-11T09:24:13.462272
MEAN_MOTION    = 14.14592098
ECCENTRICITY   = .00033555
INCLINATION    = 71.0026
RA_OF_ASC_NODE = 352.7361
ARG_OF_PERICENTER = 150.7562
MEAN_ANOMALY   = 209.3749

EPHEMERIS_TYPE = 0
CLASSIFICATION_TYPE = U
NORAD_CAT_ID   = 28353
ELEMENT_SET_NO = 999
REV_AT_EPOCH   = 11473
BSTAR          = .90775324E-4
MEAN_MOTION_DOT = .127E-5
MEAN_MOTION_DDOT = 0

CCSDS_OMM_VERS = 2.0
CREATION_DATE  = 
ORIGINATOR     = 

OBJECT_NAME    = CZ-4B R/B
OBJECT_ID      = 2004-035C
CENTER_NAME    = EARTH
REF_FRAME      = TEME
TIME_SYSTEM    = UTC
MEAN_ELEMENT_THEORY = SGP/SGP4

EPOCH          = 2026-01-11T13:28:40.758240
MEAN_MOTION    = 15.27952404
ECCENTRICITY   = .00331519
INCLINATION    = 97.3582
RA_OF_ASC_NODE = 46.5136
ARG_OF_PERICENTER = 168.4656
MEAN_ANOMALY   = 191.7351

EPHEMERIS_TYPE = 0
CLASSIFICATION_TYPE = U
NORAD_CAT_ID   = 28415
ELEMENT_SET_NO = 999
REV_AT_EPOCH   = 17118
BSTAR          = .31419781E-3
MEAN_MOTION_DOT = .8636E-4
MEAN_MOTION_DDOT = 0

CCSDS_OMM_VERS = 2.0
CREATION_DATE  = 
ORIGINATOR     = 

OBJECT_NAME    = CZ-2C R/B
OBJECT_ID      = 2004-046B
CENTER_NAME    = EARTH
REF_FRAME      = TEME
TIME_SYSTEM    = UTC
MEAN_ELEMENT_THEORY = SGP/SGP4

EPOCH          = 2026-01-11T11:29:43.835712
MEAN_MOTION    = 14.26964603
ECCENTRICITY   = .01388457
INCLINATION    = 98.1999
RA_OF_ASC_NODE = 290.0117
ARG_OF_PERICENTER = 324.5225
MEAN_ANOMALY   = 34.6782

EPHEMERIS_TYPE = 0
CLASSIFICATION_TYPE = U
NORAD_CAT_ID   = 28480
ELEMENT_SET_NO = 999
REV_AT_EPOCH   = 10034
BSTAR          = .11794773E-3
MEAN_MOTION_DOT = .275E-5
MEAN_MOTION_DDOT = 0

CCSDS_OMM_VERS = 2.0
CREATION_DATE  = 
ORIGINATOR     = 

OBJECT_NAME    = ARIANE 5 R/B
OBJECT_ID      = 2004-049H
CENTER_NAME    = EARTH
REF_FRAME      = TEME
TIME_SYSTEM    = UTC
MEAN_ELEMENT_THEORY = SGP/SGP4

EPOCH          = 2026-01-11T13:38:55.635936
MEAN_MOTION    = 14.85113022
ECCENTRICITY   = .00844567
INCLINATION    = 98.2541
RA_OF_ASC_NODE = 177.9247
ARG_OF_PERICENTER = 175.4314
MEAN_ANOMALY   = 184.7690

EPHEMERIS_TYPE = 0
CLASSIFICATION_TYPE = U
NORAD_CAT_ID   = 28499
ELEMENT_SET_NO = 999
REV_AT_EPOCH   = 13731
BSTAR          = .15421258E-3
MEAN_MOTION_DOT = .1341E-4
MEAN_MOTION_DDOT = 0

CCSDS_OMM_VERS = 2.0
CREATION_DATE  = 
ORIGINATOR     = 

OBJECT_NAME    = CZ-2D R/B
OBJECT_ID      = 2005-024B
CENTER_NAME    = EARTH
REF_FRAME      = TEME
TIME_SYSTEM    = UTC
MEAN_ELEMENT_THEORY = SGP/SGP4

EPOCH          = 2026-01-11T12:46:46.358400
MEAN_MOTION    = 15.55283499
ECCENTRICITY   = .00037519
INCLINATION    = 97.3631
RA_OF_ASC_NODE = 24.8021
ARG_OF_PERICENTER = 206.3367
MEAN_ANOMALY   = 153.7697

EPHEMERIS_TYPE = 0
CLASSIFICATION_TYPE = U
NORAD_CAT_ID   = 28738
ELEMENT_SET_NO = 999
REV_AT_EPOCH   = 13088
BSTAR          = .47958279E-3
MEAN_MOTION_DOT = .32476E-3
MEAN_MOTION_DDOT = 0

