IDEFIX & ARIANE 42P R/B 
1 27422U 02021B   26011.58016855  .00000294  00000+0  12828-3 0  9998
2 27422  98.5816 310.8892 0011934   1.3188 358.8024 14.30977113235855
AQUA                    
1 27424U 02022A   26011.60158398  .00001056  00000+0  22133-3 0  9990
2 27424  98.4078 337.9720 0002034  82.3051 337.8743 14.61815760260390
CZ-4B R/B               
1 27432U 02024C   26011.57875300  .00000032  00000+0  39156-4 0  9993
2 27432  98.8955  65.2400 0050143 184.1294 301.1382 14.14535134221164
MIDORI II (ADEOS-II)    
1 27597U 02056A   26011.60884474  .00000329  00000+0  14724-3 0  9998
2 27597  98.7676 329.7286 0001565 123.5032 236.6299 14.29233276202140
H-2A R/B                
1 27601U 02056E   26011.64258313  .00000377  00000+0  14709-3 0  9991
2 27601  98.3106 334.2160 0069802 332.5444 201.4690 14.33709317205933
CZ-4B R/B               
1 28059U 03049C   26011.58025322  .00000457  00000+0  11638-3 0  9994
2 28059  98.6813   4.2756 0049081  46.9194 313.6094 14.54945502178292
CZ-2C R/B               
1 28222U 04012C   26011.62861278  .00043313  00000+0  56970-3 0  9996
2 28222  97.7371  71.7686 0016939 157.6673 202.5323 15.58191831195374
SL-16 R/B               
1 28353U 04021B   26011.39182248  .00000127  00000+0  90775-4 0  9996
2 28353  71.0026 352.7361 0003355 150.7562 209.3749 14.14592098114731
CZ-4B R/B               
1 28415U 04035C   26011.56158285  .00008636  00000+0  31420-3 0  9997
2 28415  97.3582  46.5136 0033151 168.4656 191.7351 15.27952404171184
CZ-2C R/B               
1 28480U 04046B   26011.47897958  .00000275  00000+0  11795-3 0  9992
2 28480  98.1999 290.0117 0138845 324.5225  34.6782 14.26964603100340
ARIANE 5 R/B            
1 28499U 04049H   26011.56869949  .00001341  00000+0  15421-3 0  9999
2 28499  98.2541 177.9247 0084456 175.4314 184.7690 14.85113022137319
CZ-2D R/B               
1 28738U 05024B   26011.53248100  .00032476  00000+0  47958-3 0  9999
2 28738  97.3631  24.8021 0003751 206.3367 153.7697 15.55283499130888
